IRIDIUM 126             
1 42809U 17039G   23308.31994073  .00000527  00000+0  18127-3 0  9990
2 42809  86.4013  33.1026 0001804  93.6063 266.5339 14.34218024332957
IRIDIUM 124             
1 42810U 17039H   23308.32677493  .00000589  00000+0  16901-3 0  9993
2 42810  86.4482 329.8794 0002434  95.3980 264.7498 14.43274288337240
IRIDIUM 128             
1 42811U 17039J   23308.03160029  .00000048  00000+0  10117-4 0  9998
2 42811  86.3972  64.7446 0001909  97.0635 263.0778 14.34214527332939
IRIDIUM 121             
1 42812U 17039K   23307.78081809  .00000512  00000+0  17568-3 0  9990
2 42812  86.4014  33.3493 0002040  90.3840 269.7590 14.34220695332740
IRIDIUM 133             
1 42955U 17061A   23308.06331774  .00000085  00000+0  23427-4 0  9991
2 42955  86.3977  64.8257 0001786  88.4828 271.6572 14.34217777317733
IRIDIUM 100             
1 42956U 17061B   23308.05697447  .00000542  00000+0  18661-3 0  9994
2 42956  86.3971  64.7694 0001997  95.6513 264.4910 14.34219807317751
IRIDIUM 122             
1 42957U 17061C   23307.88572448  .00000124  00000+0  37106-4 0  9990
2 42957  86.3969  64.8386 0001918  99.7733 260.3680 14.34217468317716
IRIDIUM 129             
1 42958U 17061D   23307.84132349  .00000613  00000+0  21183-3 0  9999
2 42958  86.3973  64.9144 0001877  96.3101 263.8309 14.34216194317723
